[{"OBJECT_NAME":"ICEYE-X4","OBJECT_ID":"2019-038D","EPOCH":"2026-03-09T23:53:58.416000","MEAN_MOTION":15.26985132,"ECCENTRICITY":0.00122769,"INCLINATION":97.8888,"RA_OF_ASC_NODE":96.1923,"ARG_OF_PERICENTER":293.9914,"MEAN_ANOMALY":66.0038,"EPHEMERIS_TYPE":0,"CLASSIFICATION_TYPE":"U","NORAD_CAT_ID":44390,"ELEMENT_SET_NO":999,"REV_AT_EPOCH":36665,"BSTAR":0.00049915294,"MEAN_MOTION_DOT":0.00013179,"MEAN_MOTION_DDOT":0},{"OBJECT_NAME":"STARLINK-34777","OBJECT_ID":"2025-189S","EPOCH":"2026-03-09T16:16:19.859232","MEAN_MOTION":15.3019953,"ECCENTRICITY":9.224e-5,"INCLINATION":53.1575,"RA_OF_ASC_NODE":206.8908,"ARG_OF_PERICENTER":83.7399,"MEAN_ANOMALY":276.3707,"EPHEMERIS_TYPE":0,"CLASSIFICATION_TYPE":"U","NORAD_CAT_ID":65339,"ELEMENT_SET_NO":999,"REV_AT_EPOCH":3111,"BSTAR":0.00085592742,"MEAN_MOTION_DOT":0.00025076,"MEAN_MOTION_DDOT":0}]
